0 OPS 4682 DEB
1 15529U 65027S   13281.74162220  .00000806  00000-0  27576-2 0  7587
2 15529 090.2783 249.1369 0031959 332.7824 145.3954 12.97184644557052
0 OPS 4682 DEB
1 15529U 65027S   13283.37148906  .00000833  00000-0  28497-2 0  7597
2 15529 090.2785 249.1786 0031814 328.5037 196.6524 12.97187175557263
0 OPS 4682 DEB
1 15529U 65027S   13285.89344122  .00000325  00000-0  10982-2 0  7602
2 15529 090.2790 249.2429 0031585 321.8666 093.8487 12.97195280557591
0 OPS 4682 DEB
1 15529U 65027S   13287.38198870 -.00000085  00000-0 -31823-3 0  7619
2 15529 090.2791 249.2806 0031425 317.9162 205.2319 12.97199667557788
0 OPS 4682 DEB
1 15529U 65027S   13288.38356847 -.00000266  00000-0 -94408-3 0  7620
2 15529 090.2793 249.3062 0031333 315.2403 202.5524 12.97201864557918
0 OPS 4682 DEB
1 15529U 65027S   13289.38529172 -.00000428  00000-0 -15021-2 0  7638
2 15529 090.2795 249.3319 0031243 312.5591 200.5589 12.97202629558047
0 OPS 4682 DEB
1 15529U 65027S   13290.38883747 -.00000416  00000-0 -14611-2 0  7643
2 15529 090.2796 249.3577 0031156 309.9119 207.0452 12.97201781558176
0 OPS 4682 DEB
1 15529U 65027S   13293.60829455  .00000300  00000-0  10132-2 0  7652
2 15529 090.2797 249.4404 0030880 301.2258 121.8827 12.97194584558596
0 OPS 4682 DEB
1 15529U 65027S   13295.08892868  .00000681  00000-0  23264-2 0  7667
2 15529 090.2798 249.4785 0030784 297.2024 196.4411 12.97192034558783
